SL-12 R/B(2)            
1 15772U 85042D   26201.37489431  .00000032  00000+0  35944-4 0  9994
2 15772  71.1071 167.3982 0037364 278.5982 194.5044 14.22011666133251
SL-14 R/B               
1 15945U 85069B   26201.55628185  .00000203  00000+0  20030-4 0  9996
2 15945  82.5255 259.9841 0020273 110.7375 249.6017 14.86537177192571
SL-16 R/B               
1 16182U 85097B   26201.83009291  .00000202  00000+0  12494-3 0  9996
2 16182  71.0006 220.2490 0005887  40.1225 132.1026 14.16615585106087
SL-14 R/B               
1 16496U 86006B   26201.83273793  .00000302  00000+0  29180-4 0  9997
2 16496  82.5285 134.4533 0075960 190.0311 169.9396 14.86971044168993
COSMOS 1743             
1 16719U 86034A   26201.70360211  .00040647  00000+0  33673-3 0  9991
2 16719  82.5269 293.0148 0005572 159.7039 200.4446 15.70034544201048
SL-14 R/B               
1 16792U 86046B   26201.82833273  .00000281  00000+0  29415-4 0  9991
2 16792  82.4840 314.3888 0024005 144.9587 215.3214 14.85693257146174
SL-14 R/B               
1 16882U 86055B   26201.89683097  .00000268  00000+0  28082-4 0  9999
2 16882  82.5209   1.4351 0017416 249.7657 225.2898 14.85742719139148
AJISAI (EGS)            
1 16908U 86061A   26201.86290947 -.00000100  00000+0 -21232-4 0  9997
2 16908  50.0104  43.8433 0011076 266.3536 156.6132 12.44516700484580
SL-14 R/B               
1 17567U 87024B   26201.81333500  .00000301  00000+0  31369-4 0  9990
2 17567  82.5304 327.6441 0018351 175.0272 185.1130 14.86234399107904
COSMOS 1833             
1 17589U 87027A   26201.87472352 -.00000009  00000+0  20674-4 0  9995
2 17589  70.9214  46.0625 0024656 359.6430   0.4669 14.13067665 29130
SL-16 R/B               
1 17590U 87027B   26201.81415161  .00000166  00000+0  10594-3 0  9998
2 17590  71.0040 355.9645 0007229 276.0299  84.0001 14.17175739 34205
SL-14 R/B               
1 17912U 87038B   26201.87686612  .00000296  00000+0  31343-4 0  9995
2 17912  82.5018 171.3388 0020868  84.8358 275.5239 14.85464036 99009
COSMOS 1844             
1 17973U 87041A   26201.83751594 -.00000062  00000+0 -71777-5 0  9993
2 17973  70.9000 113.3293 0030942 187.1605 172.9079 14.14581342 22410
SL-14 R/B               
1 18153U 87055B   26201.42611190  .00000186  00000+0  18584-4 0  9992
2 18153  82.4968 223.8933 0019147 296.5229  63.4023 14.85728794 89644
COSMOS 1867             
1 18187U 87060A   26201.52671246 -.00000062  00000+0  14221-4 0  9992
2 18187  65.0115 294.6892 0017282 281.9381  77.9765 14.31518819 38954
SL-14 R/B               
1 18749U 88001B   26201.69991218  .00000197  00000+0  19896-4 0  9995
2 18749  82.5116  70.2423 0018621 154.0386 206.1769 14.85628709 61779
COSMOS 1933             
1 18958U 88020A   26201.83527773  .00002392  00000+0  11312-3 0  9998
2 18958  82.5140 119.1120 0005975  93.0686 267.1232 15.18913165 70433
SL-3 R/B                
1 19046U 88032B   26201.86190362  .00002737  00000+0  12528-3 0  9996
2 19046  97.5281 184.8776 0026926 126.8826 233.4883 15.21058070 72349
SL-16 R/B               
1 19120U 88039B   26201.87219079  .00000057  00000+0  49507-4 0  9995
2 19120  71.0145 146.9314 0020316 140.1453 220.1169 14.19631991977289
COSMOS 1953             
1 19210U 88050A   26201.82697421  .00005235  00000+0  17674-3 0  9996
2 19210  82.5071  24.0956 0011000  21.4376 338.7323 15.30385415 58130
SL-8 R/B                
1 19257U 88053B   26201.81482034  .00000095  00000+0  39334-4 0  9998
2 19257  74.0451 227.0694 0019945  10.9198 161.7292 14.38979780995741
COSMOS 1975             
1 19573U 88093A   26201.84640426  .00005455  00000+0  18801-3 0  9997
2 19573  82.5206 343.8325 0012293  64.8427 295.4087 15.29710223 39757
SL-14 R/B               
1 19574U 88093B   26201.75597627  .00000184  00000+0  18397-4 0  9997
2 19574  82.5310 277.1318 0019578 321.1669 161.5238 14.85761978 20772
SL-16 R/B               
1 19650U 88102B   26201.48590432  .00000175  00000+0  11268-3 0  9999
2 19650  70.9971 232.0743 0013996 177.3108 182.8093 14.16167475945698
INTERCOSMOS 24          
1 20261U 89080A   26201.76916249  .00000144  00000+0  39472-4 0  9998
2 20261  82.6056  17.7851 1186918 344.0060  12.6370 12.59693272683552
SL-14 R/B               
1 20262U 89080C   26201.20297445  .00000056  00000+0  15611-4 0  9999
2 20262  82.5928  88.0938 1228896 241.8334 105.3356 12.50579061676711
DELTA 1 R/B             
1 20323U 89089B   26201.46390244  .00000135  00000+0  41961-4 0  9990
2 20323  97.0638  27.6972 0070519  63.6811 297.1609 14.50749596914980
ARIANE 40 R/B           
1 20443U 90005H   26201.74635861  .00000090  00000+0  41999-4 0  9992
2 20443  98.2939 258.3156 0010645 158.0842 202.0804 14.39942264911954
DELTA 2 R/B(1)          
1 20453U 90008B   26201.66620796  .00093196  00000+0  55118-3 0  9994
2 20453  35.6001  10.7424 0056222  68.2828 292.3887 15.74532103946975
COSMOS 2058             
1 20465U 90010A   26201.28904016  .00002074  00000+0  11848-3 0  9995
2 20465  82.4675 276.7078 0008366 228.9356 131.1152 15.12175413962276
SL-14 R/B               
1 20466U 90010B   26201.82175016  .00000207  00000+0  22128-4 0  9996
2 20466  82.5039 142.3594 0018727 217.5321 142.4588 14.83665043948228
