OBJECT_NAME,OBJECT_ID,EPOCH,MEAN_MOTION,ECCENTRICITY,INCLINATION,RA_OF_ASC_NODE,ARG_OF_PERICENTER,MEAN_ANOMALY,EPHEMERIS_TYPE,CLASSIFICATION_TYPE,NORAD_CAT_ID,ELEMENT_SET_NO,REV_AT_EPOCH,BSTAR,MEAN_MOTION_DOT,MEAN_MOTION_DDOT
SL-12 R/B(2),1985-042D,2026-07-20T08:59:50.868384,14.22011666,.0037364,71.1071,167.3982,278.5982,194.5044,0,U,15772,999,13325,.35944E-4,.32E-6,0
SL-14 R/B,1985-069B,2026-07-20T13:21:02.751840,14.86537177,.0020273,82.5255,259.9841,110.7375,249.6017,0,U,15945,999,19257,.2003E-4,.203E-5,0
SL-16 R/B,1985-097B,2026-07-20T19:55:20.027424,14.16615585,.0005887,71.0006,220.2490,40.1225,132.1026,0,U,16182,999,10608,.12494E-3,.202E-5,0
SL-14 R/B,1986-006B,2026-07-20T19:59:08.557152,14.86971044,.007596,82.5285,134.4533,190.0311,169.9396,0,U,16496,999,16899,.2918E-4,.302E-5,0
COSMOS 1743,1986-034A,2026-07-20T16:53:11.222304,15.70034544,.0005572,82.5269,293.0148,159.7039,200.4446,0,U,16719,999,20104,.33673E-3,.40647E-3,0
SL-14 R/B,1986-046B,2026-07-20T19:52:47.947872,14.85693257,.0024005,82.4840,314.3888,144.9587,215.3214,0,U,16792,999,14617,.29415E-4,.281E-5,0
SL-14 R/B,1986-055B,2026-07-20T21:31:26.195808,14.85742719,.0017416,82.5209,1.4351,249.7657,225.2898,0,U,16882,999,13914,.28082E-4,.268E-5,0
AJISAI (EGS),1986-061A,2026-07-20T20:42:35.378208,12.44516700,.0011076,50.0104,43.8433,266.3536,156.6132,0,U,16908,999,48458,-.21232E-4,-.1E-5,0
SL-14 R/B,1987-024B,2026-07-20T19:31:12.144000,14.86234399,.0018351,82.5304,327.6441,175.0272,185.1130,0,U,17567,999,10790,.31369E-4,.301E-5,0
COSMOS 1833,1987-027A,2026-07-20T20:59:36.112128,14.13067665,.0024656,70.9214,46.0625,359.6430,0.4669,0,U,17589,999,2913,.20674E-4,-.9E-7,0
SL-16 R/B,1987-027B,2026-07-20T19:32:22.699104,14.17175739,.0007229,71.0040,355.9645,276.0299,84.0001,0,U,17590,999,3420,.10594E-3,.166E-5,0
SL-14 R/B,1987-038B,2026-07-20T21:02:41.232768,14.85464036,.0020868,82.5018,171.3388,84.8358,275.5239,0,U,17912,999,9900,.31343E-4,.296E-5,0
COSMOS 1844,1987-041A,2026-07-20T20:06:01.377216,14.14581342,.0030942,70.9000,113.3293,187.1605,172.9079,0,U,17973,999,2241,-.71777E-5,-.62E-6,0
SL-14 R/B,1987-055B,2026-07-20T10:13:36.068160,14.85728794,.0019147,82.4968,223.8933,296.5229,63.4023,0,U,18153,999,8964,.18584E-4,.186E-5,0
COSMOS 1867,1987-060A,2026-07-20T12:38:27.956544,14.31518819,.0017282,65.0115,294.6892,281.9381,77.9765,0,U,18187,999,3895,.14221224E-4,-.62E-6,0
SL-14 R/B,1988-001B,2026-07-20T16:47:52.412352,14.85628709,.0018621,82.5116,70.2423,154.0386,206.1769,0,U,18749,999,6177,.19896E-4,.197E-5,0
COSMOS 1933,1988-020A,2026-07-20T20:02:47.995872,15.18913165,.0005975,82.5140,119.1120,93.0686,267.1232,0,U,18958,999,7043,.11312E-3,.2392E-4,0
SL-3 R/B,1988-032B,2026-07-20T20:41:08.472768,15.21058070,.0026926,97.5281,184.8776,126.8826,233.4883,0,U,19046,999,7234,.12528E-3,.2737E-4,0
SL-16 R/B,1988-039B,2026-07-20T20:55:57.284256,14.19631991,.0020316,71.0145,146.9314,140.1453,220.1169,0,U,19120,999,97728,.49507E-4,.57E-6,0
COSMOS 1953,1988-050A,2026-07-20T19:50:50.571744,15.30385415,.0011,82.5071,24.0956,21.4376,338.7323,0,U,19210,999,5813,.17674E-3,.5235E-4,0
SL-8 R/B,1988-053B,2026-07-20T19:33:20.477376,14.38979780,.0019945,74.0451,227.0694,10.9198,161.7292,0,U,19257,999,99574,.39334E-4,.95E-6,0
COSMOS 1975,1988-093A,2026-07-20T20:18:49.328064,15.29710223,.0012293,82.5206,343.8325,64.8427,295.4087,0,U,19573,999,3975,.18801E-3,.5455E-4,0
SL-14 R/B,1988-093B,2026-07-20T18:08:36.349728,14.85761978,.0019578,82.5310,277.1318,321.1669,161.5238,0,U,19574,999,2077,.18397E-4,.184E-5,0
SL-16 R/B,1988-102B,2026-07-20T11:39:42.133248,14.16167475,.00139964,70.9971,232.0743,177.3108,182.8093,0,U,19650,999,94569,.11267668E-3,.175E-5,0
INTERCOSMOS 24,1989-080A,2026-07-20T18:27:35.639136,12.59693272,.1186918,82.6056,17.7851,344.0060,12.6370,0,U,20261,999,68355,.39472E-4,.144E-5,0
SL-14 R/B,1989-080C,2026-07-20T04:52:16.992480,12.50579061,.12288963,82.5928,88.0938,241.8334,105.3356,0,U,20262,999,67671,.15611103E-4,.56E-6,0
DELTA 1 R/B,1989-089B,2026-07-20T11:08:01.170816,14.50749596,.00705195,97.0638,27.6972,63.6811,297.1609,0,U,20323,999,91498,.41960872E-4,.135E-5,0
ARIANE 40 R/B,1990-005H,2026-07-20T17:54:45.383904,14.39942264,.0010645,98.2939,258.3156,158.0842,202.0804,0,U,20443,999,91195,.41999E-4,.9E-6,0
DELTA 2 R/B(1),1990-008B,2026-07-20T15:59:20.367744,15.74532103,.0056222,35.6001,10.7424,68.2828,292.3887,0,U,20453,999,94697,.55118E-3,.93196E-3,0
COSMOS 2058,1990-010A,2026-07-20T06:56:13.069824,15.12175413,.00083665,82.4675,276.7078,228.9356,131.1152,0,U,20465,999,96227,.11848245E-3,.2074E-4,0
SL-14 R/B,1990-010B,2026-07-20T19:43:19.213824,14.83665043,.0018727,82.5039,142.3594,217.5321,142.4588,0,U,20466,999,94822,.22128E-4,.207E-5,0
